CCSDS_OMM_VERS = 2.0
CREATION_DATE  = 
ORIGINATOR     = 

OBJECT_NAME    = ATLAS CENTAUR 2
OBJECT_ID      = 1963-047A
CENTER_NAME    = EARTH
REF_FRAME      = TEME
TIME_SYSTEM    = UTC
MEAN_ELEMENT_THEORY = SGP/SGP4

EPOCH          = 2026-02-20T00:17:38.540832
MEAN_MOTION    = 14.12014003
ECCENTRICITY   = .05481427
INCLINATION    = 30.3574
RA_OF_ASC_NODE = 294.4324
ARG_OF_PERICENTER = 284.5043
MEAN_ANOMALY   = 69.5381

EPHEMERIS_TYPE = 0
CLASSIFICATION_TYPE = U
NORAD_CAT_ID   = 694
ELEMENT_SET_NO = 999
REV_AT_EPOCH   = 12912
BSTAR          = .13002592E-3
MEAN_MOTION_DOT = .1183E-4
MEAN_MOTION_DDOT = 0

CCSDS_OMM_VERS = 2.0
CREATION_DATE  = 
ORIGINATOR     = 

OBJECT_NAME    = THOR AGENA D R/B
OBJECT_ID      = 1964-002A
CENTER_NAME    = EARTH
REF_FRAME      = TEME
TIME_SYSTEM    = UTC
MEAN_ELEMENT_THEORY = SGP/SGP4

EPOCH          = 2026-02-20T15:17:12.672672
MEAN_MOTION    = 14.34008996
ECCENTRICITY   = .00321357
INCLINATION    = 99.1230
RA_OF_ASC_NODE = 64.0452
ARG_OF_PERICENTER = 309.3308
MEAN_ANOMALY   = 50.5028

EPHEMERIS_TYPE = 0
CLASSIFICATION_TYPE = U
NORAD_CAT_ID   = 733
ELEMENT_SET_NO = 999
REV_AT_EPOCH   = 23585
BSTAR          = .87442302E-4
MEAN_MOTION_DOT = .196E-5
MEAN_MOTION_DDOT = 0

CCSDS_OMM_VERS = 2.0
CREATION_DATE  = 
ORIGINATOR     = 

OBJECT_NAME    = SL-3 R/B
OBJECT_ID      = 1964-053B
CENTER_NAME    = EARTH
REF_FRAME      = TEME
TIME_SYSTEM    = UTC
MEAN_ELEMENT_THEORY = SGP/SGP4

EPOCH          = 2026-02-20T07:25:42.458880
MEAN_MOTION    = 14.61348754
ECCENTRICITY   = .0078974
INCLINATION    = 65.0777
RA_OF_ASC_NODE = 22.1889
ARG_OF_PERICENTER = 297.7332
MEAN_ANOMALY   = 61.5774

EPHEMERIS_TYPE = 0
CLASSIFICATION_TYPE = U
NORAD_CAT_ID   = 877
ELEMENT_SET_NO = 999
REV_AT_EPOCH   = 26425
BSTAR          = .85674E-4
MEAN_MOTION_DOT = .317E-5
MEAN_MOTION_DDOT = 0

CCSDS_OMM_VERS = 2.0
CREATION_DATE  = 
ORIGINATOR     = 

OBJECT_NAME    = SL-8 R/B
OBJECT_ID      = 1967-045B
CENTER_NAME    = EARTH
REF_FRAME      = TEME
TIME_SYSTEM    = UTC
MEAN_ELEMENT_THEORY = SGP/SGP4

EPOCH          = 2026-02-20T21:32:00.403296
MEAN_MOTION    = 14.45603653
ECCENTRICITY   = .00635361
INCLINATION    = 74.0119
RA_OF_ASC_NODE = 19.4468
ARG_OF_PERICENTER = 29.7837
MEAN_ANOMALY   = 330.6912

EPHEMERIS_TYPE = 0
CLASSIFICATION_TYPE = U
NORAD_CAT_ID   = 2802
ELEMENT_SET_NO = 999
REV_AT_EPOCH   = 8659
BSTAR          = .11462409E-3
MEAN_MOTION_DOT = .387E-5
MEAN_MOTION_DDOT = 0

CCSDS_OMM_VERS = 2.0
CREATION_DATE  = 
ORIGINATOR     = 

OBJECT_NAME    = SL-8 R/B
OBJECT_ID      = 1968-040B
CENTER_NAME    = EARTH
REF_FRAME      = TEME
TIME_SYSTEM    = UTC
MEAN_ELEMENT_THEORY = SGP/SGP4

EPOCH          = 2026-02-20T20:55:04.493856
MEAN_MOTION    = 15.03123955
ECCENTRICITY   = .00246937
INCLINATION    = 74.0331
RA_OF_ASC_NODE = 348.0525
ARG_OF_PERICENTER = 177.1590
MEAN_ANOMALY   = 182.9743

EPHEMERIS_TYPE = 0
CLASSIFICATION_TYPE = U
NORAD_CAT_ID   = 3230
ELEMENT_SET_NO = 999
REV_AT_EPOCH   = 8748
BSTAR          = .21544956E-3
MEAN_MOTION_DOT = .2886E-4
MEAN_MOTION_DDOT = 0

CCSDS_OMM_VERS = 2.0
CREATION_DATE  = 
ORIGINATOR     = 

OBJECT_NAME    = OAO 2
OBJECT_ID      = 1968-110A
CENTER_NAME    = EARTH
REF_FRAME      = TEME
TIME_SYSTEM    = UTC
MEAN_ELEMENT_THEORY = SGP/SGP4

EPOCH          = 2026-02-20T22:48:04.866912
MEAN_MOTION    = 14.47296547
ECCENTRICITY   = .00049096
INCLINATION    = 34.9949
RA_OF_ASC_NODE = 358.6830
ARG_OF_PERICENTER = 60.6771
MEAN_ANOMALY   = 299.4410

EPHEMERIS_TYPE = 0
CLASSIFICATION_TYPE = U
NORAD_CAT_ID   = 3597
ELEMENT_SET_NO = 999
REV_AT_EPOCH   = 1667
BSTAR          = .65905201E-4
MEAN_MOTION_DOT = .225E-5
MEAN_MOTION_DDOT = 0

CCSDS_OMM_VERS = 2.0
CREATION_DATE  = 
ORIGINATOR     = 

OBJECT_NAME    = ISIS 1
OBJECT_ID      = 1969-009A
CENTER_NAME    = EARTH
REF_FRAME      = TEME
TIME_SYSTEM    = UTC
MEAN_ELEMENT_THEORY = SGP/SGP4

EPOCH          = 2026-02-20T19:32:56.838336
MEAN_MOTION    = 11.30407889
ECCENTRICITY   = .17078325
INCLINATION    = 88.4556
RA_OF_ASC_NODE = 157.1475
ARG_OF_PERICENTER = 123.2087
MEAN_ANOMALY   = 254.4490

EPHEMERIS_TYPE = 0
CLASSIFICATION_TYPE = U
NORAD_CAT_ID   = 3669
ELEMENT_SET_NO = 999
REV_AT_EPOCH   = 34662
BSTAR          = .10941123E-3
MEAN_MOTION_DOT = .176E-5
MEAN_MOTION_DDOT = 0

CCSDS_OMM_VERS = 2.0
CREATION_DATE  = 
ORIGINATOR     = 

OBJECT_NAME    = SERT 2
OBJECT_ID      = 1970-009A
CENTER_NAME    = EARTH
REF_FRAME      = TEME
TIME_SYSTEM    = UTC
MEAN_ELEMENT_THEORY = SGP/SGP4

EPOCH          = 2026-02-20T20:02:59.722080
MEAN_MOTION    = 13.58727938
ECCENTRICITY   = .00043799
INCLINATION    = 99.2737
RA_OF_ASC_NODE = 355.8533
ARG_OF_PERICENTER = 199.1109
MEAN_ANOMALY   = 220.5122

EPHEMERIS_TYPE = 0
CLASSIFICATION_TYPE = U
NORAD_CAT_ID   = 4327
ELEMENT_SET_NO = 999
REV_AT_EPOCH   = 77760
BSTAR          = .69681496E-4
MEAN_MOTION_DOT = .1E-6
MEAN_MOTION_DDOT = 0

CCSDS_OMM_VERS = 2.0
CREATION_DATE  = 
ORIGINATOR     = 

OBJECT_NAME    = SL-3 R/B
OBJECT_ID      = 1971-028B
CENTER_NAME    = EARTH
REF_FRAME      = TEME
TIME_SYSTEM    = UTC
MEAN_ELEMENT_THEORY = SGP/SGP4

EPOCH          = 2026-02-20T20:30:18.794016
MEAN_MOTION    = 15.59643422
ECCENTRICITY   = .00159366
INCLINATION    = 81.2325
RA_OF_ASC_NODE = 72.8022
ARG_OF_PERICENTER = 353.5445
MEAN_ANOMALY   = 6.5599

EPHEMERIS_TYPE = 0
CLASSIFICATION_TYPE = U
NORAD_CAT_ID   = 5118
ELEMENT_SET_NO = 999
REV_AT_EPOCH   = 98604
BSTAR          = .41183267E-3
MEAN_MOTION_DOT = .33121E-3
MEAN_MOTION_DDOT = 0

CCSDS_OMM_VERS = 2.0
CREATION_DATE  = 
ORIGINATOR     = 

OBJECT_NAME    = ASTEX 1
OBJECT_ID      = 1971-089A
CENTER_NAME    = EARTH
REF_FRAME      = TEME
TIME_SYSTEM    = UTC
MEAN_ELEMENT_THEORY = SGP/SGP4

EPOCH          = 2026-02-20T18:51:23.218560
MEAN_MOTION    = 14.50748733
ECCENTRICITY   = .00172266
INCLINATION    = 92.7143
RA_OF_ASC_NODE = 146.2919
ARG_OF_PERICENTER = 136.2859
MEAN_ANOMALY   = 223.9715

EPHEMERIS_TYPE = 0
CLASSIFICATION_TYPE = U
NORAD_CAT_ID   = 5560
ELEMENT_SET_NO = 999
REV_AT_EPOCH   = 85985
BSTAR          = .11316372E-3
MEAN_MOTION_DOT = .445E-5
MEAN_MOTION_DDOT = 0

CCSDS_OMM_VERS = 2.0
CREATION_DATE  = 
ORIGINATOR     = 

OBJECT_NAME    = SL-8 R/B
OBJECT_ID      = 1971-119B
CENTER_NAME    = EARTH
REF_FRAME      = TEME
TIME_SYSTEM    = UTC
MEAN_ELEMENT_THEORY = SGP/SGP4

EPOCH          = 2026-02-20T21:15:31.694400
MEAN_MOTION    = 14.37309825
ECCENTRICITY   = .05519849
INCLINATION    = 73.8863
RA_OF_ASC_NODE = 207.1148
ARG_OF_PERICENTER = 177.2194
MEAN_ANOMALY   = 183.2267

EPHEMERIS_TYPE = 0
CLASSIFICATION_TYPE = U
NORAD_CAT_ID   = 5730
ELEMENT_SET_NO = 999
REV_AT_EPOCH   = 65307
BSTAR          = .69959505E-3
MEAN_MOTION_DOT = .13484E-3
MEAN_MOTION_DDOT = 0

CCSDS_OMM_VERS = 2.0
CREATION_DATE  = 
ORIGINATOR     = 

OBJECT_NAME    = OAO 3 (COPERNICUS)
OBJECT_ID      = 1972-065A
CENTER_NAME    = EARTH
REF_FRAME      = TEME
TIME_SYSTEM    = UTC
MEAN_ELEMENT_THEORY = SGP/SGP4

EPOCH          = 2026-02-20T23:26:19.266432
MEAN_MOTION    = 14.59982148
ECCENTRICITY   = .00063164
INCLINATION    = 35.0065
RA_OF_ASC_NODE = 32.5334
ARG_OF_PERICENTER = 18.7267
MEAN_ANOMALY   = 18.2282

EPHEMERIS_TYPE = 0
CLASSIFICATION_TYPE = U
NORAD_CAT_ID   = 6153
ELEMENT_SET_NO = 999
REV_AT_EPOCH   = 84375
BSTAR          = .78384947E-4
MEAN_MOTION_DOT = .361E-5
MEAN_MOTION_DDOT = 0

