ATLAS CENTAUR 2         
1 00694U 63047A   26051.01225163  .00001183  00000+0  13003-3 0  9995
2 00694  30.3574 294.4324 0548142 284.5043  69.5381 14.12014003129124
THOR AGENA D R/B        
1 00733U 64002A   26051.63695223  .00000196  00000+0  87442-4 0  9999
2 00733  99.1230  64.0452 0032135 309.3308  50.5028 14.34008996235857
SL-3 R/B                
1 00877U 64053B   26051.30951920  .00000317  00000+0  85674-4 0  9997
2 00877  65.0777  22.1889 0078974 297.7332  61.5774 14.61348754264256
SL-8 R/B                
1 02802U 67045B   26051.89722689  .00000387  00000+0  11462-3 0  9993
2 02802  74.0119  19.4468 0063536  29.7837 330.6912 14.45603653 86596
SL-8 R/B                
1 03230U 68040B   26051.87157979  .00002886  00000+0  21545-3 0  9996
2 03230  74.0331 348.0525 0024693 177.1590 182.9743 15.03123955 87484
OAO 2                   
1 03597U 68110A   26051.95005633  .00000225  00000+0  65905-4 0  9992
2 03597  34.9949 358.6830 0004909  60.6771 299.4410 14.47296547 16674
ISIS 1                  
1 03669U 69009A   26051.81454674  .00000176  00000+0  10941-3 0  9992
2 03669  88.4556 157.1475 1707832 123.2087 254.4490 11.30407889346623
SERT 2                  
1 04327U 70009A   26051.83541345  .00000010  00000+0  69681-4 0  9993
2 04327  99.2737 355.8533 0004379 199.1109 220.5122 13.58727938777604
SL-3 R/B                
1 05118U 71028B   26051.85438419  .00033121  00000+0  41183-3 0  9998
2 05118  81.2325  72.8022 0015936 353.5445   6.5599 15.59643422986044
ASTEX 1                 
1 05560U 71089A   26051.78568540  .00000445  00000+0  11316-3 0  9995
2 05560  92.7143 146.2919 0017226 136.2859 223.9715 14.50748733859854
SL-8 R/B                
1 05730U 71119B   26051.88578350  .00013484  00000+0  69960-3 0  9994
2 05730  73.8863 207.1148 0551984 177.2194 183.2267 14.37309825653070
OAO 3 (COPERNICUS)      
1 06153U 72065A   26051.97661188  .00000361  00000+0  78385-4 0  9999
2 06153  35.0065  32.5334 0006316  18.7267  18.2282 14.59982148843754
